[{"OBJECT_NAME":"STARLINK-2545","OBJECT_ID":"2021-036P","EPOCH":"2026-03-09T07:26:59.011008","MEAN_MOTION":15.30209224,"ECCENTRICITY":0.00010799,"INCLINATION":53.1594,"RA_OF_ASC_NODE":77.4373,"ARG_OF_PERICENTER":83.2666,"MEAN_ANOMALY":276.8457,"EPHEMERIS_TYPE":0,"CLASSIFICATION_TYPE":"U","NORAD_CAT_ID":48289,"ELEMENT_SET_NO":999,"REV_AT_EPOCH":26834,"BSTAR":1.7143398e-5,"MEAN_MOTION_DOT":1.49e-6,"MEAN_MOTION_DDOT":0},{"OBJECT_NAME":"OBJECT H","OBJECT_ID":"2025-055H","EPOCH":"2026-03-09T23:29:50.051328","MEAN_MOTION":15.30330066,"ECCENTRICITY":0.00075967,"INCLINATION":97.636,"RA_OF_ASC_NODE":211.9572,"ARG_OF_PERICENTER":140.4354,"MEAN_ANOMALY":219.7441,"EPHEMERIS_TYPE":0,"CLASSIFICATION_TYPE":"U","NORAD_CAT_ID":63298,"ELEMENT_SET_NO":999,"REV_AT_EPOCH":5423,"BSTAR":0.0015582864,"MEAN_MOTION_DOT":0.00045901,"MEAN_MOTION_DDOT":0}]
